COMMENT,ORIGINATOR,NORAD_CAT_ID,OBJECT_NAME,OBJECT_TYPE,CLASSIFICATION_TYPE,INTLDES,EPOCH,EPOCH_MICROSECONDS,MEAN_MOTION,ECCENTRICITY,INCLINATION,RA_OF_ASC_NODE,ARG_OF_PERICENTER,MEAN_ANOMALY,EPHEMERIS_TYPE,ELEMENT_SET_NO,REV_AT_EPOCH,BSTAR,MEAN_MOTION_DOT,MEAN_MOTION_DDOT,FILE,TLE_LINE0,TLE_LINE1,TLE_LINE2,OBJECT_ID,OBJECT_NUMBER,SEMIMAJOR_AXIS,PERIOD,APOGEE,PERIGEE,DECAYED
GENERATED VIA SPACETRACK.ORG API,18 SPCS,44066,S5 DEB,DEBRIS,U,19009E,2024-03-08 21:30:27,171648,0.98986236,0.0005317,4.4489,80.7035,199.3787,160.925,0,999,1814,0,-0.00000212,0,4215215,0 S5 DEB,1 44066U 19009E   24068.89614782 -.00000212  00000-0  00000+0 0  9999,2 44066   4.4489  80.7035 0005317 199.3787 160.9250  0.98986236 18142,2019-009E,44066,42529.013,1454.748,36173.490,36128.265,0
GENERATED VIA SPACETRACK.ORG API,18 SPCS,44066,S5 DEB,DEBRIS,U,19009E,2024-03-08 21:30:26,741376,0.98986271,0.0005285,4.4489,80.7032,199.4796,160.8242,0,999,1814,0,-0.00000211,0,4216444,0 S5 DEB,1 44066U 19009E   24068.89614284 -.00000211  00000-0  00000-0 0  9996,2 44066   4.4489  80.7032 0005285 199.4796 160.8242  0.98986271 18143,2019-009E,44066,42529.003,1454.747,36173.344,36128.391,0
GENERATED VIA SPACETRACK.ORG API,18 SPCS,29055,ASTRA 1KR,PAYLOAD,U,06012A,2024-03-08 21:26:42,673344,1.00270862,0.0002817,0.0684,282.5393,12.8072,212.5552,0,999,3739,0,0.00000109,0,4215142,0 ASTRA 1KR,1 29055U 06012A   24068.89354946  .00000109  00000-0  00000-0 0  9998,2 29055   0.0684 282.5393 0002817  12.8072 212.5552  1.00270862 37391,2006-012A,29055,42164.991,1436.110,35798.734,35774.978,0
GENERATED VIA SPACETRACK.ORG API,18 SPCS,33436,ASTRA 1M,PAYLOAD,U,08057A,2024-03-08 21:26:42,673344,1.00271542,0.000161,0.0243,96.5596,312.7226,98.6302,0,999,3741,0,0.0000011,0,4215142,0 ASTRA 1M,1 33436U 08057A   24068.89354946  .00000110  00000-0  00000-0 0  9999,2 33436   0.0243  96.5596 0001610 312.7226  98.6302  1.00271542 37416,2008-057A,33436,42164.800,1436.100,35793.454,35779.877,0
GENERATED VIA SPACETRACK.ORG API,18 SPCS,41384,IRNSS 1F,PAYLOAD,U,16015A,2024-03-08 21:20:42,649728,1.00267622,0.001974,3.3362,121.6695,189.8518,208.2113,0,999,2933,0,0.00000149,0,4215364,0 IRNSS 1F,1 41384U 16015A   24068.88938252  .00000149  00000-0  00000+0 0  9991,2 41384   3.3362 121.6695 0019740 189.8518 208.2113  1.00267622 29330,2016-015A,41384,42165.899,1436.157,35871.000,35704.529,0
GENERATED VIA SPACETRACK.ORG API,18 SPCS,25001,TITAN 3C TRANSTAGE DEB,DEBRIS,U,68081H,2024-03-08 20:59:42,493632,1.01695085,0.0069105,1.0296,347.3399,39.2804,205.4473,0,999,10987,0,-0.00000239,0,4215142,0 TITAN 3C TRANSTAGE DEB,1 25001U 68081H   24068.87479738 -.00000239  00000-0  00000-0 0  9999,2 25001   1.0296 347.3399 0069105  39.2804 205.4473  1.01695085109878,1968-081H,25001,41770.390,1415.998,35680.909,35103.601,0
GENERATED VIA SPACETRACK.ORG API,18 SPCS,42749,ECHOSTAR 21,PAYLOAD,U,17032A,2024-03-08 20:50:42,534240,1.00272318,0.0002237,2.7144,317.7161,27.637,144.6017,0,999,2478,0,0.00000055,0,4215142,0 ECHOSTAR 21,1 42749U 17032A   24068.86854785  .00000055  00000-0  00000-0 0  9990,2 42749   2.7144 317.7161 0002237  27.6370 144.6017  1.00272318 24789,2017-032A,42749,42164.583,1436.089,35795.880,35777.015,0
GENERATED VIA SPACETRACK.ORG API,18 SPCS,41469,IRNSS 1G,PAYLOAD,U,16027A,2024-03-08 19:44:59,12736,1.002744,0.0005055,3.2167,122.9631,295.9754,173.8078,0,999,2885,0,-0.00000344,0,4215142,0 IRNSS 1G,1 41469U 16027A   24068.82290524 -.00000344  00000-0  00000-0 0  9994,2 41469   3.2167 122.9631 0005055 295.9754 173.8078  1.00274400 28850,2016-027A,41469,42163.999,1436.059,35807.178,35764.550,0
GENERATED VIA SPACETRACK.ORG API,18 SPCS,44307,YAMAL 601,PAYLOAD,U,19031A,2024-03-08 19:21:55,562976,1.00272093,0.0002295,0.0098,177.5507,175.3261,153.5655,0,999,1759,0,0.0000011,0,4215142,0 YAMAL 601,1 44307U 19031A   24068.80689309  .00000110  00000-0  00000-0 0  9997,2 44307   0.0098 177.5507 0002295 175.3261 153.5655  1.00272093 17598,2019-031A,44307,42164.646,1436.092,35796.187,35776.834,0
GENERATED VIA SPACETRACK.ORG API,18 SPCS,43162,SBIRS GEO 3 (USA 282),PAYLOAD,U,18009A,2024-03-08 18:22:09,117984,1.00271453,0.0001771,2.4841,332.0052,20.4773,290.5762,0,999,2251,0,0.00000119,0,4214711,0 SBIRS GEO 3 (USA 282),1 43162U 18009A   24068.76538331  .00000119  00000-0  00000+0 0  9990,2 43162   2.4841 332.0052 0001771  20.4773 290.5762  1.00271453 22515,2018-009A,43162,42164.825,1436.102,35794.157,35779.223,0
GENERATED VIA SPACETRACK.ORG API,18 SPCS,43162,SBIRS GEO 3 (USA 282),PAYLOAD,U,18009A,2024-03-08 18:22:09,117984,1.00271453,0.0001771,2.4841,332.0052,20.4773,290.5762,0,999,2251,0,0.00000119,0,4215142,0 SBIRS GEO 3 (USA 282),1 43162U 18009A   24068.76538331  .00000119  00000-0  00000-0 0  9991,2 43162   2.4841 332.0052 0001771  20.4773 290.5762  1.00271453 22515,2018-009A,43162,42164.825,1436.102,35794.157,35779.223,0
GENERATED VIA SPACETRACK.ORG API,18 SPCS,25967,UFO 10 (USA 146),PAYLOAD,U,99063A,2024-03-08 17:18:07,35264,1.00275455,0.0003598,9.4036,31.0659,276.5594,95.8851,0,999,8902,0,-0.00000191,0,4215142,0 UFO 10 (USA 146),1 25967U 99063A   24068.72091476 -.00000191  00000-0  00000-0 0  9994,2 25967   9.4036  31.0659 0003598 276.5594  95.8851  1.00275455 89024,1999-063A,25967,42163.703,1436.044,35800.739,35770.398,0
GENERATED VIA SPACETRACK.ORG API,18 SPCS,42915,TDRS 13,PAYLOAD,U,17047A,2024-03-08 17:10:42,532320,1.00271184,0.0014186,3.7254,342.542,106.4622,324.041,0,999,2402,0,-0.00000108,0,4215142,0 TDRS 13,1 42915U 17047A   24068.71577005 -.00000108  00000-0  00000-0 0  9992,2 42915   3.7254 342.5420 0014186 106.4622 324.0410  1.00271184 24021,2017-047A,42915,42164.900,1436.106,35846.581,35726.950,0
GENERATED VIA SPACETRACK.ORG API,18 SPCS,22787,UFO 2 (USA 95),PAYLOAD,U,93056A,2024-03-08 16:47:16,585728,1.00271458,0.0004267,11.6284,7.8796,358.2999,81.1455,0,999,11022,0,0.00000123,0,4215142,0 UFO 2 (USA 95),1 22787U 93056A   24068.69949752  .00000123  00000-0  00000-0 0  9996,2 22787  11.6284   7.8796 0004267 358.2999  81.1455  1.00271458110229,1993-056A,22787,42164.824,1436.102,35804.680,35768.697,0
GENERATED VIA SPACETRACK.ORG API,18 SPCS,20253,FLTSATCOM 8 (USA 46),PAYLOAD,U,89077A,2024-03-08 16:39:32,293728,1.00272283,0.0006878,12.6655,356.1719,353.0189,193.4489,0,999,25227,0,-0.00000368,0,4214891,0 FLTSATCOM 8 (USA 46),1 20253U 89077A   24068.69412377 -.00000368  00000-0  00000+0 0  9999,2 20253  12.6655 356.1719 0006878 353.0189 193.4489  1.00272283252270,1989-077A,20253,42164.592,1436.090,35815.458,35757.457,0
GENERATED VIA SPACETRACK.ORG API,18 SPCS,20253,FLTSATCOM 8 (USA 46),PAYLOAD,U,89077A,2024-03-08 16:39:32,293728,1.00272283,0.0006878,12.6655,356.1719,353.0189,193.4489,0,999,25229,0,-0.00000368,0,4215142,0 FLTSATCOM 8 (USA 46),1 20253U 89077A   24068.69412377 -.00000368  00000-0  00000-0 0  9990,2 20253  12.6655 356.1719 0006878 353.0189 193.4489  1.00272283252292,1989-077A,20253,42164.592,1436.090,35815.458,35757.457,0
GENERATED VIA SPACETRACK.ORG API,18 SPCS,41937,SBIRS GEO 4 (USA 273),PAYLOAD,U,17004A,2024-03-08 15:13:55,951104,1.00270978,0.0002284,1.4531,350.1396,357.5253,310.8127,0,999,2627,0,-0.00000152,0,4215142,0 SBIRS GEO 4 (USA 273),1 41937U 17004A   24068.63467536 -.00000152  00000-0  00000-0 0  9995,2 41937   1.4531 350.1396 0002284 357.5253 310.8127  1.00270978 26276,2017-004A,41937,42164.958,1436.108,35796.454,35777.193,0
GENERATED VIA SPACETRACK.ORG API,18 SPCS,25001,TITAN 3C TRANSTAGE DEB,DEBRIS,U,68081H,2024-03-08 15:00:16,163712,1.01695354,0.0069071,1.0298,347.3064,39.2748,114.1066,0,999,10987,0,-0.00000244,0,4214683,0 TITAN 3C TRANSTAGE DEB,1 25001U 68081H   24068.62518708 -.00000244  00000-0  00000-0 0  9999,2 25001   1.0298 347.3064 0069071  39.2748 114.1066  1.01695354109871,1968-081H,25001,41770.317,1415.994,35680.693,35103.670,0
GENERATED VIA SPACETRACK.ORG API,18 SPCS,28945,SPAINSAT,PAYLOAD,U,06007A,2024-03-08 14:52:36,613344,1.00271294,0.0002979,0.037,237.003,90.7894,32.1656,0,999,6588,0,-0.00000225,0,4215005,0 SPAINSAT,1 28945U 06007A   24068.61986821 -.00000225  00000-0  00000+0 0  9991,2 28945   0.0370 237.0030 0002979  90.7894  32.1656  1.00271294 65885,2006-007A,28945,42164.870,1436.104,35799.296,35774.174,0
GENERATED VIA SPACETRACK.ORG API,18 SPCS,28945,SPAINSAT,PAYLOAD,U,06007A,2024-03-08 14:52:36,613344,1.00271294,0.0002979,0.037,237.003,90.7894,32.1656,0,999,6588,0,-0.00000225,0,4215142,0 SPAINSAT,1 28945U 06007A   24068.61986821 -.00000225  00000-0  00000-0 0  9992,2 28945   0.0370 237.0030 0002979  90.7894  32.1656  1.00271294 65885,2006-007A,28945,42164.870,1436.104,35799.296,35774.174,0
GENERATED VIA SPACETRACK.ORG API,18 SPCS,28945,SPAINSAT,PAYLOAD,U,06007A,2024-03-08 14:52:36,602976,1.00271238,0.0002969,0.0364,233.8215,94.6725,31.4644,0,999,6589,0,-0.00000225,0,4216444,0 SPAINSAT,1 28945U 06007A   24068.61986809 -.00000225  00000-0  00000-0 0  9998,2 28945   0.0364 233.8215 0002969  94.6725  31.4644  1.00271238 65890,2006-007A,28945,42164.885,1436.105,35799.269,35774.232,0
GENERATED VIA SPACETRACK.ORG API,18 SPCS,41469,IRNSS 1G,PAYLOAD,U,16027A,2024-03-08 14:35:36,951648,1.00274528,0.0005023,3.2163,122.9717,295.6032,96.6154,0,999,2885,0,-0.00000344,0,4214683,0 IRNSS 1G,1 41469U 16027A   24068.60806657 -.00000344  00000-0  00000-0 0  9990,2 41469   3.2163 122.9717 0005023 295.6032  96.6154  1.00274528 28850,2016-027A,41469,42163.963,1436.058,35807.007,35764.649,0
GENERATED VIA SPACETRACK.ORG API,18 SPCS,44307,YAMAL 601,PAYLOAD,U,19031A,2024-03-08 14:12:33,501888,1.00271975,0.0002282,0.01,178.9738,173.9962,75.9181,0,999,1758,0,0.0000011,0,4214683,0 YAMAL 601,1 44307U 19031A   24068.59205442  .00000110  00000-0  00000-0 0  9995,2 44307   0.0100 178.9738 0002282 173.9962  75.9181  1.00271975 17589,2019-031A,44307,42164.679,1436.094,35796.166,35776.922,0
